ONEWEB-0678             
1 56714U 23068E   24007.69203830 -.00000011  00000+0 -61981-4 0  9998
2 56714  87.8993  76.6206 0002013 102.1629 257.9727 13.15547366 32075
ONEWEB-0679             
1 56715U 23068F   24007.91667824 -.00937178  00000+0 -73566+0 0  9991
2 56715  87.2165  47.8272 0015691 132.1899 187.2930 13.94968407  5646
ONEWEB-0680             
1 56716U 23068G   24007.68136417  .00000000  00000+0 -32150-4 0  9998
2 56716  87.9225  61.4793 0002020  71.1588 288.9765 13.21823681 33325
ONEWEB-0681             
1 56717U 23068H   24007.70658370  .00000060  00000+0  11283-3 0  9997
2 56717  87.9223  61.4631 0001019 139.5166 220.6044 13.21824381 33313
ONEWEB-0682             
1 56718U 23068J   24007.73085847  .00000030  00000+0  46597-4 0  9998
2 56718  87.8994  76.6649 0001538  85.2599 274.8707 13.15545749 32247
ONEWEB-0683             
1 56719U 23068K   24007.74038266 -.00000039  00000+0 -13664-3 0  9992
2 56719  87.8991  76.6311 0001630  91.5342 268.5976 13.15549260 32217
ONEWEB-0684             
1 56720U 23068L   24007.74749268 -.00000164  00000+0 -46892-3 0  9993
2 56720  87.8994  76.7047 0002296  99.3163 260.8227 13.15546323 32047
ONEWEB-0686             
1 56721U 23068M   24007.91667824 -.00988890  00000+0 -77313+0 0  9999
2 56721  87.2347  47.7941 0014624 131.0401 291.5700 13.95376930  5615
